[{"OBJECT_NAME":"STARLINK-3651","OBJECT_ID":"2022-025AF","EPOCH":"2026-03-09T22:28:28.956000","MEAN_MOTION":15.08833367,"ECCENTRICITY":0.00016657,"INCLINATION":53.2193,"RA_OF_ASC_NODE":38.0165,"ARG_OF_PERICENTER":106.5731,"MEAN_ANOMALY":253.5445,"EPHEMERIS_TYPE":0,"CLASSIFICATION_TYPE":"U","NORAD_CAT_ID":51985,"ELEMENT_SET_NO":999,"REV_AT_EPOCH":22109,"BSTAR":1.0453237e-5,"MEAN_MOTION_DOT":-1.22e-6,"MEAN_MOTION_DDOT":0},{"OBJECT_NAME":"KUIPER-00148","OBJECT_ID":"2025-217H","EPOCH":"2026-03-09T06:36:19.446048","MEAN_MOTION":15.09536529,"ECCENTRICITY":0.00081087,"INCLINATION":51.8794,"RA_OF_ASC_NODE":26.5769,"ARG_OF_PERICENTER":351.8096,"MEAN_ANOMALY":8.2745,"EPHEMERIS_TYPE":0,"CLASSIFICATION_TYPE":"U","NORAD_CAT_ID":65769,"ELEMENT_SET_NO":999,"REV_AT_EPOCH":2507,"BSTAR":0.00098730243,"MEAN_MOTION_DOT":0.00015783,"MEAN_MOTION_DDOT":0}]
